{"type": "FeatureCollection", "features": [ {"type": "Feature", "properties": {"norad_id": 29940, "name": "FENGYUN 1C DEB", "group": "fengyun-1c-debris", "lat": -41.41213889294785, "lon": 15.89792574579974, "alt_km": 851.2344607337118, "timestamp": "2025-12-24T20:42:21.299240+00:00", "meta": {"OBJECT_NAME": "FENGYUN 1C DEB", "OBJECT_ID": "1999-025JN", "EPOCH": "2025-12-24T07:25:17.980896", "MEAN_MOTION": 14.18849516, "ECCENTRICITY": 0.00746017, "INCLINATION": 98.6213, "RA_OF_ASC_NODE": 7.6699, "ARG_OF_PERICENTER": 66.8124, "MEAN_ANOMALY": 306.4467, "EPHEMERIS_TYPE": 0, "CLASSIFICATION_TYPE": "U", "NORAD_CAT_ID": 29940, "ELEMENT_SET_NO": 999, "REV_AT_EPOCH": 97652, "BSTAR": 0.00056940658, "MEAN_MOTION_DOT": 1.176e-05, "MEAN_MOTION_DDOT": 0}, "tle": {"line1": "1 29940U 99025JN  25358.30923589  .00001176  00000+0  56941-3 0  9993", "line2": "2 29940  98.6213   7.6699 0074601  66.8124 306.4467 14.18849516976523"}}, "geometry": {"type": "Point", "coordinates": [15.89792574579974, -41.41213889294785]}}, {"type": "Feature", "properties": {"norad_id": 29942, "name": "FENGYUN 1C DEB", "group": "fengyun-1c-debris", "lat": -33.577947608161736, "lon": 70.40459078309063, "alt_km": 793.7655315687016, "timestamp": "2025-12-24T20:42:21.299250+00:00", "meta": {"OBJECT_NAME": "FENGYUN 1C DEB", "OBJECT_ID": "1999-025JQ", "EPOCH": "2025-12-24T04:04:38.730144", "MEAN_MOTION": 14.30451383, "ECCENTRICITY": 0.00492544, "INCLINATION": 98.636, "RA_OF_ASC_NODE": 63.9265, "ARG_OF_PERICENTER": 242.0308, "MEAN_ANOMALY": 117.5885, "EPHEMERIS_TYPE": 0, "CLASSIFICATION_TYPE": "U", "NORAD_CAT_ID": 29942, "ELEMENT_SET_NO": 999, "REV_AT_EPOCH": 98032, "BSTAR": 0.00064604913, "MEAN_MOTION_DOT": 1.659e-05, "MEAN_MOTION_DDOT": 0}, "tle": {"line1": "1 29942U 99025JQ  25358.16989271  .00001659  00000+0  64605-3 0  9991", "line2": "2 29942  98.6360  63.9265 0049254 242.0308 117.5885 14.30451383980323"}}, "geometry": {"type": "Point", "coordinates": [70.40459078309063, -33.577947608161736]}}, {"type": "Feature", "properties": {"norad_id": 29943, "name": "FENGYUN 1C DEB", "group": "fengyun-1c-debris", "lat": 81.25962862144266, "lon": -81.2422988091438, "alt_km": 858.5551454128663, "timestamp": "2025-12-24T20:42:21.299259+00:00", "meta": {"OBJECT_NAME": "FENGYUN 1C DEB", "OBJECT_ID": "1999-025JR", "EPOCH": "2025-12-23T22:25:31.109376", "MEAN_MOTION": 14.09673289, "ECCENTRICITY": 0.0035323, "INCLINATION": 98.7267, "RA_OF_ASC_NODE": 5.3487, "ARG_OF_PERICENTER": 194.9247, "MEAN_ANOMALY": 226.4609, "EPHEMERIS_TYPE": 0, "CLASSIFICATION_TYPE": "U", "NORAD_CAT_ID": 29943, "ELEMENT_SET_NO": 999, "REV_AT_EPOCH": 97464, "BSTAR": -7.1714e-06, "MEAN_MOTION_DOT": -5.5e-07, "MEAN_MOTION_DDOT": 0}, "tle": {"line1": "1 29943U 99025JR  25357.93438784 -.00000055  00000+0 -71714-5 0  9996", "line2": "2 29943  98.7267   5.3487 0035323 194.9247 226.4609 14.09673289974645"}}, "geometry": {"type": "Point", "coordinates": [-81.2422988091438, 81.25962862144266]}}, {"type": "Feature", "properties": {"norad_id": 29944, "name": "FENGYUN 1C DEB", "group": "fengyun-1c-debris", "lat": 53.84406948060331, "lon": -77.96216805451184, "alt_km": 685.9495900281918, "timestamp": "2025-12-24T20:42:21.299269+00:00", "meta": {"OBJECT_NAME": "FENGYUN 1C DEB", "OBJECT_ID": "1999-025JS", "EPOCH": "2025-12-24T02:41:45.764736", "MEAN_MOTION": 14.87682716, "ECCENTRICITY": 0.01665253, "INCLINATION": 99.0051, "RA_OF_ASC_NODE": 293.721, "ARG_OF_PERICENTER": 195.5481, "MEAN_ANOMALY": 164.0582, "EPHEMERIS_TYPE": 0, "CLASSIFICATION_TYPE": "U", "NORAD_CAT_ID": 29944, "ELEMENT_SET_NO": 999, "REV_AT_EPOCH": 623, "BSTAR": 0.00076941518, "MEAN_MOTION_DOT": 8.983e-05, "MEAN_MOTION_DDOT": 0}, "tle": {"line1": "1 29944U 99025JS  25358.11233524  .00008983  00000+0  76942-3 0  9995", "line2": "2 29944  99.0051 293.7210 0166525 195.5481 164.0582 14.87682716  6233"}}, "geometry": {"type": "Point", "coordinates": [-77.96216805451184, 53.84406948060331]}}, {"type": "Feature", "properties": {"norad_id": 29945, "name": "FENGYUN 1C DEB", "group": "fengyun-1c-debris", "lat": 60.020037591941865, "lon": -142.30029281055988, "alt_km": 887.8667956134368, "timestamp": "2025-12-24T20:42:21.299279+00:00", "meta": {"OBJECT_NAME": "FENGYUN 1C DEB", "OBJECT_ID": "1999-025JT", "EPOCH": "2025-12-24T01:37:48.083232", "MEAN_MOTION": 14.0557846, "ECCENTRICITY": 0.00303952, "INCLINATION": 98.7911, "RA_OF_ASC_NODE": 21.369, "ARG_OF_PERICENTER": 330.3761, "MEAN_ANOMALY": 88.5071, "EPHEMERIS_TYPE": 0, "CLASSIFICATION_TYPE": "U", "NORAD_CAT_ID": 29945, "ELEMENT_SET_NO": 999, "REV_AT_EPOCH": 97137, "BSTAR": 0.00014237012, "MEAN_MOTION_DOT": 1.9e-06, "MEAN_MOTION_DDOT": 0}, "tle": {"line1": "1 29945U 99025JT  25358.06791763  .00000190  00000+0  14237-3 0  9995", "line2": "2 29945  98.7911  21.3690 0030395 330.3761  88.5071 14.05578460971376"}}, "geometry": {"type": "Point", "coordinates": [-142.30029281055988, 60.020037591941865]}}, {"type": "Feature", "properties": {"norad_id": 29946, "name": "FENGYUN 1C DEB", "group": "fengyun-1c-debris", "lat": -73.88449452387036, "lon": 138.43738528814362, "alt_km": 837.152863125918, "timestamp": "2025-12-24T20:42:21.299289+00:00", "meta": {"OBJECT_NAME": "FENGYUN 1C DEB", "OBJECT_ID": "1999-025JU", "EPOCH": "2025-12-23T21:38:08.208096", "MEAN_MOTION": 14.08264862, "ECCENTRICITY": 0.0080187, "INCLINATION": 98.7806, "RA_OF_ASC_NODE": 349.8417, "ARG_OF_PERICENTER": 311.8807, "MEAN_ANOMALY": 114.5993, "EPHEMERIS_TYPE": 0, "CLASSIFICATION_TYPE": "U", "NORAD_CAT_ID": 29946, "ELEMENT_SET_NO": 999, "REV_AT_EPOCH": 97204, "BSTAR": 0.00021416, "MEAN_MOTION_DOT": 3.33e-06, "MEAN_MOTION_DDOT": 0}, "tle": {"line1": "1 29946U 99025JU  25357.90148389  .00000333  00000+0  21416-3 0  9994", "line2": "2 29946  98.7806 349.8417 0080187 311.8807 114.5993 14.08264862972043"}}, "geometry": {"type": "Point", "coordinates": [138.43738528814362, -73.88449452387036]}}, {"type": "Feature", "properties": {"norad_id": 29947, "name": "FENGYUN 1C DEB", "group": "fengyun-1c-debris", "lat": 10.456370307864821, "lon": 27.41742306572589, "alt_km": 877.6272282233322, "timestamp": "2025-12-24T20:42:21.299299+00:00", "meta": {"OBJECT_NAME": "FENGYUN 1C DEB", "OBJECT_ID": "1999-025JV", "EPOCH": "2025-12-24T02:06:56.540160", "MEAN_MOTION": 14.03081836, "ECCENTRICITY": 0.00410476, "INCLINATION": 98.8368, "RA_OF_ASC_NODE": 28.3106, "ARG_OF_PERICENTER": 89.6166, "MEAN_ANOMALY": 331.1598, "EPHEMERIS_TYPE": 0, "CLASSIFICATION_TYPE": "U", "NORAD_CAT_ID": 29947, "ELEMENT_SET_NO": 999, "REV_AT_EPOCH": 96909, "BSTAR": 0.00023443449, "MEAN_MOTION_DOT": 3.25e-06, "MEAN_MOTION_DDOT": 0}, "tle": {"line1": "1 29947U 99025JV  25358.08815440  .00000325  00000+0  23443-3 0  9997", "line2": "2 29947  98.8368  28.3106 0041047  89.6166 331.1598 14.03081836969094"}}, "geometry": {"type": "Point", "coordinates": [27.41742306572589, 10.456370307864821]}}, {"type": "Feature", "properties": {"norad_id": 29948, "name": "FENGYUN 1C DEB", "group": "fengyun-1c-debris", "lat": 13.311261976079736, "lon": -17.373436069776098, "alt_km": 934.1274958814129, "timestamp": "2025-12-24T20:42:21.299359+00:00", "meta": {"OBJECT_NAME": "FENGYUN 1C DEB", "OBJECT_ID": "1999-025JW", "EPOCH": "2025-12-24T05:23:03.192000", "MEAN_MOTION": 14.06197598, "ECCENTRICITY": 0.00841336, "INCLINATION": 98.8251, "RA_OF_ASC_NODE": 344.1108, "ARG_OF_PERICENTER": 201.0786, "MEAN_ANOMALY": 182.401, "EPHEMERIS_TYPE": 0, "CLASSIFICATION_TYPE": "U", "NORAD_CAT_ID": 29948, "ELEMENT_SET_NO": 999, "REV_AT_EPOCH": 97138, "BSTAR": -1.7591663e-05, "MEAN_MOTION_DOT": -7.3e-07, "MEAN_MOTION_DDOT": 0}, "tle": {"line1": "1 29948U 99025JW  25358.22434250 -.00000073  00000+0 -17592-4 0  9991", "line2": "2 29948  98.8251 344.1108 0084133 201.0786 182.4010 14.06197598971385"}}, "geometry": {"type": "Point", "coordinates": [-17.373436069776098, 13.311261976079736]}}, {"type": "Feature", "properties": {"norad_id": 29949, "name": "FENGYUN 1C DEB", "group": "fengyun-1c-debris", "lat": -5.675828390774357, "lon": 15.046023662960598, "alt_km": 872.147869078457, "timestamp": "2025-12-24T20:42:21.299373+00:00", "meta": {"OBJECT_NAME": "FENGYUN 1C DEB", "OBJECT_ID": "1999-025JX", "EPOCH": "2025-12-24T00:30:33.282720", "MEAN_MOTION": 14.06828332, "ECCENTRICITY": 0.00230295, "INCLINATION": 98.7616, "RA_OF_ASC_NODE": 13.3527, "ARG_OF_PERICENTER": 272.4653, "MEAN_ANOMALY": 142.0276, "EPHEMERIS_TYPE": 0, "CLASSIFICATION_TYPE": "U", "NORAD_CAT_ID": 29949, "ELEMENT_SET_NO": 999, "REV_AT_EPOCH": 97266, "BSTAR": -6.0011707e-05, "MEAN_MOTION_DOT": -1.43e-06, "MEAN_MOTION_DDOT": 0}, "tle": {"line1": "1 29949U 99025JX  25358.02121855 -.00000143  00000+0 -60012-4 0  9997", "line2": "2 29949  98.7616  13.3527 0023029 272.4653 142.0276 14.06828332972667"}}, "geometry": {"type": "Point", "coordinates": [15.046023662960598, -5.675828390774357]}}, {"type": "Feature", "properties": {"norad_id": 29950, "name": "FENGYUN 1C DEB", "group": "fengyun-1c-debris", "lat": -17.038335694344998, "lon": 32.302561366388495, "alt_km": 879.982758697739, "timestamp": "2025-12-24T20:42:21.299384+00:00", "meta": {"OBJECT_NAME": "FENGYUN 1C DEB", "OBJECT_ID": "1999-025JY", "EPOCH": "2025-12-24T02:21:25.304256", "MEAN_MOTION": 14.10339155, "ECCENTRICITY": 0.00327458, "INCLINATION": 98.7397, "RA_OF_ASC_NODE": 28.8575, "ARG_OF_PERICENTER": 209.2759, "MEAN_ANOMALY": 213.7737, "EPHEMERIS_TYPE": 0, "CLASSIFICATION_TYPE": "U", "NORAD_CAT_ID": 29950, "ELEMENT_SET_NO": 999, "REV_AT_EPOCH": 97451, "BSTAR": 0.00014842469, "MEAN_MOTION_DOT": 2.22e-06, "MEAN_MOTION_DDOT": 0}, "tle": {"line1": "1 29950U 99025JY  25358.09820954  .00000222  00000+0  14842-3 0  9997", "line2": "2 29950  98.7397  28.8575 0032745 209.2759 213.7737 14.10339155974518"}}, "geometry": {"type": "Point", "coordinates": [32.302561366388495, -17.038335694344998]}}]}